COSMOS 2529 (757)       
1 43687U 18086A   26092.16118493  .00000002  00000+0  00000+0 0  9993
2 43687  64.2936 195.1591 0009054 253.7554 106.1568  2.13101947 57669
COSMOS 2534 (758)       
1 44299U 19030A   26092.46822809  .00000005  00000+0  00000+0 0  9992
2 44299  64.3670 195.1642 0010843 278.2113  91.7529  2.13102468 53316
COSMOS 2544 (759)       
1 44850U 19088A   26092.47821141  .00000001  00000+0  00000+0 0  9993
2 44850  65.5087  76.2399 0013076 256.6381 103.2057  2.13086826 49106
COSMOS 2545 (760)       
1 45358U 20018A   26090.32740933 -.00000034  00000+0  00000+0 0  9990
2 45358  64.4015 315.1566 0007330 245.6005 114.3786  2.13102306 47008
COSMOS 2547 (705K)      
1 46805U 20075A   26086.76204793 -.00000031  00000+0  00000+0 0  9990
2 46805  64.5985 195.1905 0007370 232.5213 127.4084  2.13100219 42176
COSMOS 2557 (706K)      
1 52984U 22075A   26092.08886449 -.00000045  00000+0  00000+0 0  9998
2 52984  64.3418 317.1673 0010785 282.9879  76.9461  2.13101860 29095
COSMOS 2559 (707K)      
1 54031U 22130A   26092.37757024 -.00000046  00000+0  00000+0 0  9994
2 54031  64.3149 317.2428 0010859 177.9210 182.1370  2.13101452 27076
COSMOS 2564 (761)       
1 54377U 22161A   26093.62878927  .00000015  00000+0  00000+0 0  9991
2 54377  64.7399 195.1849 0010327 215.7841 144.1673  2.13101981 26048
COSMOS 2569 (703K)      
1 57517U 23114A   26094.11069508 -.00000004  00000+0  00000+0 0  9990
2 57517  65.2614  75.1171 0012843 293.7768  66.0733  2.13103947 20684
COSMOS 2584 (704K)      
1 63130U 25042A   26093.05907931 -.00000004  00000+0  00000+0 0  9993
2 63130  65.0428  75.3546 0007302 238.7034 121.2121  2.13103586  8444
COSMOS 2596 (708K)      
1 65590U 25206B   26094.78791638 -.00000048  00000+0  00000+0 0  9991
2 65590  64.6764 317.5419 0012141 317.3821  46.0308  2.13100629  4351
